0 COSMOS 2251 DEB
1 34995U 93036AFT 13281.20306802  .00004756  00000-0  14405-2 0  2561
2 34995 073.8448 104.1614 0065087 134.7792 225.8683 14.41327486234768
0 COSMOS 2251 DEB
1 34995U 93036AFT 13285.15926390  .00006715  00000-0  20279-2 0  2584
2 34995 073.8447 096.7487 0064851 126.4726 234.2429 14.41383302235339
0 COSMOS 2251 DEB
1 34995U 93036AFT 13288.76829293  .00009668  00000-0  29123-2 0  2596
2 34995 073.8441 089.9857 0064521 119.0134 241.7508 14.41437358235852
0 COSMOS 2251 DEB
1 34995U 93036AFT 13291.05856097  .00009161  00000-0  27584-2 0  2603
2 34995 073.8450 085.6941 0064328 114.1746 246.6152 14.41474948236181
0 COSMOS 2251 DEB
1 34995U 93036AFT 13293.07117069  .00008725  00000-0  26263-2 0  2615
2 34995 073.8457 081.9224 0064155 109.8748 250.9336 14.41505380236471
0 COSMOS 2251 DEB
1 34995U 93036AFT 13295.08373498  .00010084  00000-0  30320-2 0  2629
2 34995 073.8459 078.1512 0063916 105.6294 255.1926 14.41536386236769
